H1 CPF  1  DGF 2022 09 28 23  7711 larets     NONE      
H2   304206 5557    27944 2022 09 15 00 00 00 2022 09 22 00 00 00    30 1 1  0 0 0
H5  0.0650
H9
10 0 59843  82800.000000  0      -4499640.296      -5262366.668       1433474.120
10 0 59843  82830.000000  0      -4563372.530      -5262874.404       1214695.659
10 0 59843  82860.000000  0      -4622481.226      -5257792.586        994679.997
10 0 59843  82890.000000  0      -4676882.392      -5247146.957        773651.251
10 0 59843  82920.000000  0      -4726496.957      -5230969.272        551834.558
10 0 59843  82950.000000  0      -4771250.878      -5209297.254        329455.847
10 0 59843  82980.000000  0      -4811075.242      -5182174.529        106741.601
10 0 59843  83010.000000  0      -4845906.367      -5149650.558       -116081.377
10 0 59843  83040.000000  0      -4875685.883      -5111780.565       -338786.205
10 0 59843  83070.000000  0      -4900360.825      -5068625.452       -561146.154
10 0 59843  83100.000000  0      -4919883.703      -5020251.715       -782934.885
10 0 59843  83130.000000  0      -4934212.574      -4966731.345      -1003926.687
10 0 59843  83160.000000  0      -4943311.110      -4908141.733      -1223896.711
10 0 59843  83190.000000  0      -4947148.650      -4844565.556      -1442621.199
10 0 59843  83220.000000  0      -4945700.256      -4776090.668      -1659877.722
10 0 59843  83250.000000  0      -4938946.751      -4702809.980      -1875445.406
10 0 59843  83280.000000  0      -4926874.760      -4624821.335      -2089105.156
10 0 59843  83310.000000  0      -4909476.742      -4542227.379      -2300639.888
10 0 59843  83340.000000  0      -4886751.008      -4455135.424      -2509834.742
10 0 59843  83370.000000  0      -4858701.743      -4363657.318      -2716477.307
10 0 59843  83400.000000  0      -4825339.015      -4267909.290      -2920357.833
10 0 59843  83430.000000  0      -4786678.778      -4168011.810      -3121269.448
10 0 59843  83460.000000  0      -4742742.872      -4064089.434      -3319008.365
10 0 59843  83490.000000  0      -4693559.007      -3956270.650      -3513374.082
10 0 59843  83520.000000  0      -4639160.754      -3844687.716      -3704169.593
10 0 59843  83550.000000  0      -4579587.519      -3729476.502      -3891201.579
10 0 59843  83580.000000  0      -4514884.514      -3610776.317      -4074280.604
10 0 59843  83610.000000  0      -4445102.720      -3488729.743      -4253221.303
10 0 59843  83640.000000  0      -4370298.847      -3363482.462      -4427842.567
10 0 59843  83670.000000  0      -4290535.282      -3235183.079      -4597967.719
10 0 59843  83700.000000  0      -4205880.036      -3103982.945      -4763424.693
10 0 59843  83730.000000  0      -4116406.682      -2970035.978      -4924046.194
10 0 59843  83760.000000  0      -4022194.284      -2833498.484      -5079669.870
10 0 59843  83790.000000  0      -3923327.331      -2694528.970      -5230138.463
10 0 59843  83820.000000  0      -3819895.649      -2553287.962      -5375299.966
10 0 59843  83850.000000  0      -3711994.326      -2409937.822      -5515007.766
10 0 59843  83880.000000  0      -3599723.613      -2264642.557      -5649120.789
10 0 59843  83910.000000  0      -3483188.835      -2117567.636      -5777503.633
10 0 59843  83940.000000  0      -3362500.286      -1968879.796      -5900026.698
10 0 59843  83970.000000  0      -3237773.125      -1818746.860      -6016566.312
10 0 59843  84000.000000  0      -3109127.259      -1667337.545      -6127004.847
10 0 59843  84030.000000  0      -2976687.233      -1514821.273      -6231230.833
10 0 59843  84060.000000  0      -2840582.098      -1361367.985      -6329139.058
10 0 59843  84090.000000  0      -2700945.292      -1207147.953      -6420630.674
10 0 59843  84120.000000  0      -2557914.502      -1052331.591      -6505613.284
10 0 59843  84150.000000  0      -2411631.530       -897089.273      -6584001.028
10 0 59843  84180.000000  0      -2262242.151       -741591.146      -6655714.668
10 0 59843  84210.000000  0      -2109895.972       -586006.945      -6720681.652
10 0 59843  84240.000000  0      -1954746.278       -430505.817      -6778836.187
10 0 59843  84270.000000  0      -1796949.884       -275256.135      -6830119.296
10 0 59843  84300.000000  0      -1636666.985       -120425.327      -6874478.875
10 0 59843  84330.000000  0      -1474060.989         33820.306      -6911869.742
10 0 59843  84360.000000  0      -1309298.363        187315.756      -6942253.687
10 0 59843  84390.000000  0      -1142548.458        339897.491      -6965599.509
10 0 59843  84420.000000  0       -973983.341        491403.623      -6981883.048
10 0 59843  84450.000000  0       -803777.622        641674.079      -6991087.205
10 0 59843  84480.000000  0       -632108.273        790550.765      -6993201.962
10 0 59843  84510.000000  0       -459154.454        937877.734      -6988224.392
10 0 59843  84540.000000  0       -285097.330       1083501.335      -6976158.661
10 0 59843  84570.000000  0       -110119.889       1227270.376      -6957016.032
10 0 59843  84600.000000  0         65593.245       1369036.275      -6930814.868
10 0 59843  84630.000000  0        241856.001       1508653.218      -6897580.618
10 0 59843  84660.000000  0        418481.062       1645978.307      -6857345.805
10 0 59843  84690.000000  0        595280.062       1780871.712      -6810149.991
10 0 59843  84720.000000  0        772063.786       1913196.808      -6756039.749
10 0 59843  84750.000000  0        948642.369       2042820.313      -6695068.615
10 0 59843  84780.000000  0       1124825.493       2169612.427      -6627297.044
10 0 59843  84810.000000  0       1300422.589       2293446.954      -6552792.360
10 0 59843  84840.000000  0       1475243.041       2414201.440      -6471628.705
10 0 59843  84870.000000  0       1649096.394       2531757.295      -6383886.969
10 0 59843  84900.000000  0       1821792.564       2645999.912      -6289654.714
10 0 59843  84930.000000  0       1993142.041       2756818.781      -6189026.100
10 0 59843  84960.000000  0       2162956.099       2864107.596      -6082101.793
10 0 59843  84990.000000  0       2331047.002       2967764.357      -5968988.875
10 0 59843  85020.000000  0       2497228.207       3067691.477      -5849800.751
10 0 59843  85050.000000  0       2661314.576       3163795.871      -5724657.042
10 0 59843  85080.000000  0       2823122.582       3255989.053      -5593683.481
10 0 59843  85110.000000  0       2982470.516       3344187.223      -5457011.795
10 0 59843  85140.000000  0       3139178.699       3428311.349      -5314779.582
10 0 59843  85170.000000  0       3293069.685       3508287.248      -5167130.181
10 0 59843  85200.000000  0       3443968.471       3584045.649      -5014212.534
10 0 59843  85230.000000  0       3591702.694       3655522.262      -4856181.042
10 0 59843  85260.000000  0       3736102.840       3722657.837      -4693195.422
10 0 59843  85290.000000  0       3877002.439       3785398.222      -4525420.548
10 0 59843  85320.000000  0       4014238.264       3843694.406      -4353026.294
10 0 59843  85350.000000  0       4147650.533       3897502.568      -4176187.364
10 0 59843  85380.000000  0       4277083.096       3946784.109      -3995083.118
10 0 59843  85410.000000  0       4402383.629       3991505.682      -3809897.393
10 0 59843  85440.000000  0       4523403.815       4031639.216      -3620818.322
10 0 59843  85470.000000  0       4639999.530       4067161.935      -3428038.138
10 0 59843  85500.000000  0       4752031.018       4098056.369      -3231752.987
10 0 59843  85530.000000  0       4859363.063       4124310.358      -3032162.721
10 0 59843  85560.000000  0       4961865.161       4145917.055      -2829470.703
10 0 59843  85590.000000  0       5059411.683       4162874.916      -2623883.594
10 0 59843  85620.000000  0       5151882.039       4175187.691      -2415611.144
10 0 59843  85650.000000  0       5239160.836       4182864.400      -2204865.970
10 0 59843  85680.000000  0       5321138.024       4185919.306      -1991863.334
10 0 59843  85710.000000  0       5397709.036       4184371.886      -1776820.920
10 0 59843  85740.000000  0       5468774.929       4178246.785      -1559958.603
10 0 59843  85770.000000  0       5534242.515       4167573.777      -1341498.226
10 0 59843  85800.000000  0       5594024.481       4152387.708      -1121663.357
10 0 59843  85830.000000  0       5648039.511       4132728.443       -900679.062
10 0 59843  85860.000000  0       5696212.394       4108640.800       -678771.664
10 0 59843  85890.000000  0       5738474.134       4080174.480       -456168.505
10 0 59843  85920.000000  0       5774762.043       4047383.995       -233097.702
10 0 59843  85950.000000  0       5805019.832       4010328.580         -9787.906
10 0 59843  85980.000000  0       5829197.699       3969072.108        213531.939
10 0 59843  86010.000000  0       5847252.397       3923682.998        436632.845
10 0 59843  86040.000000  0       5859147.306       3874234.113        659286.024
10 0 59843  86070.000000  0       5864852.486       3820802.655        881263.135
10 0 59843  86100.000000  0       5864344.731       3763470.054       1102336.519
10 0 59843  86130.000000  0       5857607.608       3702321.854       1322279.451
10 0 59843  86160.000000  0       5844631.494       3637447.595       1540866.375
10 0 59843  86190.000000  0       5825413.602       3568940.684       1757873.146
10 0 59843  86220.000000  0       5799957.995       3496898.274       1973077.270
10 0 59843  86250.000000  0       5768275.601       3421421.130       2186258.143
10 0 59843  86280.000000  0       5730384.207       3342613.488       2397197.283
10 0 59843  86310.000000  0       5686308.459       3260582.919       2605678.561
10 0 59843  86340.000000  0       5636079.840       3175440.183       2811488.434
10 0 59843  86370.000000  0       5579736.649       3087299.077       3014416.168
99
